0 COSMOS 2251 DEB
1 36632U 93036BEW 13283.99913576  .00002991  00000-0  11122-2 0  2473
2 36632 073.9752 160.1268 0050349 248.3248 111.2536 14.31838712196835
0 COSMOS 2251 DEB
1 36632U 93036BEW 13285.32663059  .00002284  00000-0  85168-3 0  2488
2 36632 073.9752 157.6974 0050285 245.5960 113.9939 14.31844599197027
0 COSMOS 2251 DEB
1 36632U 93036BEW 13287.28292846  .00002930  00000-0  10894-2 0  2499
2 36632 073.9753 154.1181 0050129 241.6189 117.9903 14.31850532197307
0 COSMOS 2251 DEB
1 36632U 93036BEW 13289.30908152  .00003122  00000-0  11600-2 0  2500
2 36632 073.9748 150.4101 0050038 237.4092 122.2223 14.31865023197593
0 COSMOS 2251 DEB
1 36632U 93036BEW 13290.91601818  .00002877  00000-0  10697-2 0  2510
2 36632 073.9744 147.4691 0049940 234.0930 125.5581 14.31872956197825
0 COSMOS 2251 DEB
1 36632U 93036BEW 13291.96401491  .00003042  00000-0  11303-2 0  2522
2 36632 073.9743 145.5509 0049874 231.9263 127.7384 14.31876798197971
0 COSMOS 2251 DEB
1 36632U 93036BEW 13293.29147341  .00003388  00000-0  12577-2 0  2539
2 36632 073.9743 143.1211 0049792 229.1717 130.5111 14.31883111198166
0 COSMOS 2251 DEB
1 36632U 93036BEW 13295.24771693  .00003525  00000-0  13077-2 0  2549
2 36632 073.9745 139.5403 0049682 225.1821 134.5287 14.31894461198449
